[
    {
        "Altitude(m)": 604983.0530511143,
        "Argument of Periapsis(deg)": 0.0,
        "Eccentricity": 0.0,
        "Inclination(deg)": 60.0,
        "Latitude(deg)": -0.09271629819597965,
        "Longitude(deg)": -39.916083501410924,
        "Mean Anomaly(deg)": -180.0,
        "RAAN(deg)": 240.0,
        "Satellite Name": "Test1 1067",
        "Satellite Number": 1067,
        "Semi-Major Axis(m)": 6980739.136638005,
        "Time(s)": 0
    },
    {
        "Altitude(m)": 605055.3329865364,
        "Argument of Periapsis(deg)": 0.00010418945913296404,
        "Eccentricity": 0.0,
        "Inclination(deg)": 60.0,
        "Latitude(deg)": -0.6331258855808584,
        "Longitude(deg)": -39.64795801731019,
        "Mean Anomaly(deg)": -179.37989385453818,
        "RAAN(deg)": 239.99957995086024,
        "Satellite Name": "Test1 1067",
        "Satellite Number": 1067,
        "Semi-Major Axis(m)": 6980739.136638005,
        "Time(s)": 10
    }
]